COSMOS 2251 DEB         
1 35643U 93036ANJ 17345.26224682  .00001173  00000-0  25234-3 0  9995
2 35643  74.0132  82.8263 0050313 212.8282 146.9755 14.58950325457461
